

*******************************************************************************
Ephemeris / WWW_USER Fri Mar 22 01:19:45 2024 Pasadena, USA      / Horizons
*******************************************************************************
Target body name: Moon (301)                      {source: DE441}
Center body name: Sun (10)                        {source: DE441}
Center-site name: BODY CENTER
*******************************************************************************
Start time      : A.D. 1995-Dec-02 00:02:00.0000 TDB
Stop  time      : A.D. 1995-Dec-05 00:00:00.0000 TDB
Step-size       : 1 minutes
*******************************************************************************
Center geodetic : 0.0, 0.0, 0.0                   {E-lon(deg),Lat(deg),Alt(km)}
Center cylindric: 0.0, 0.0, 0.0                   {E-lon(deg),Dxy(km),Dz(km)}
Center radii    : 695700.0, 695700.0, 695700.0 km {Equator_a, b, pole_c}
Output units    : KM-S
Calendar mode   : Gregorian
Output type     : GEOMETRIC cartesian states
Output format   : 2 (position and velocity)
Reference frame : ICRF
*******************************************************************************
            JDTDB,            Calendar Date (TDB),                      X,                      Y,                      Z,                     VX,                     VY,                     VZ,
**************************************************************************************************************************************************************************************************
$$SOE
2450053.680555556, A.D. 1995-Dec-02 04:20:00.0000,  5.187502212801815E+07,  1.268911064085887E+08,  5.502281682026226E+07, -2.860549083843884E+01,  1.036298351080507E+01,  4.398282721042247E+00,
2450053.681250000, A.D. 1995-Dec-02 04:21:00.0000,  5.187330579017879E+07,  1.268917281771313E+08,  5.502308071259689E+07, -2.860577047171378E+01,  1.036263457075397E+01,  4.398128432031882E+00,
2450053.681944444, A.D. 1995-Dec-02 04:22:00.0000,  5.187158943556179E+07,  1.268923499247367E+08,  5.502334459567395E+07, -2.860605009242845E+01,  1.036228560766287E+01,  4.397974135415043E+00,
2450053.682638889, A.D. 1995-Dec-02 04:23:00.0000,  5.186987306416794E+07,  1.268929716514037E+08,  5.502360846949299E+07, -2.860632970057970E+01,  1.036193662153351E+01,  4.397819831192449E+00,
2450053.683333333, A.D. 1995-Dec-02 04:24:00.0000,  5.186815667599798E+07,  1.268935933571308E+08,  5.502387233405355E+07, -2.860660929616439E+01,  1.036158761236761E+01,  4.397665519364822E+00,
2450053.684027778, A.D. 1995-Dec-02 04:25:00.0000,  5.186644027105265E+07,  1.268942150419167E+08,  5.502413618935516E+07, -2.860688887917935E+01,  1.036123858016692E+01,  4.397511199932883E+00,
2450053.684722222, A.D. 1995-Dec-02 04:26:00.0000,  5.186472384933273E+07,  1.268948367057600E+08,  5.502440003539737E+07, -2.860716844962147E+01,  1.036088952493318E+01,  4.397356872897352E+00,
2450053.685416667, A.D. 1995-Dec-02 04:27:00.0000,  5.186300741083895E+07,  1.268954583486592E+08,  5.502466387217975E+07, -2.860744800748758E+01,  1.036054044666813E+01,  4.397202538258950E+00,
2450053.686111111, A.D. 1995-Dec-02 04:28:00.0000,  5.186129095557208E+07,  1.268960799706131E+08,  5.502492769970182E+07, -2.860772755277455E+01,  1.036019134537348E+01,  4.397048196018399E+00,
2450053.686805556, A.D. 1995-Dec-02 04:29:00.0000,  5.185957448353287E+07,  1.268967015716202E+08,  5.502519151796313E+07, -2.860800708547922E+01,  1.035984222105101E+01,  4.396893846176419E+00,
2450053.687500000, A.D. 1995-Dec-02 04:30:00.0000,  5.185785799472208E+07,  1.268973231516792E+08,  5.502545532696320E+07, -2.860828660559845E+01,  1.035949307370243E+01,  4.396739488733732E+00,
2450053.688194444, A.D. 1995-Dec-02 04:31:00.0000,  5.185614148914045E+07,  1.268979447107886E+08,  5.502571912670162E+07, -2.860856611312911E+01,  1.035914390332949E+01,  4.396585123691061E+00,
2450053.688888889, A.D. 1995-Dec-02 04:32:00.0000,  5.185442496678875E+07,  1.268985662489471E+08,  5.502598291717790E+07, -2.860884560806804E+01,  1.035879470993392E+01,  4.396430751049124E+00,
2450053.689583333, A.D. 1995-Dec-02 04:33:00.0000,  5.185270842766774E+07,  1.268991877661534E+08,  5.502624669839159E+07, -2.860912509041212E+01,  1.035844549351747E+01,  4.396276370808644E+00,
2450053.690277778, A.D. 1995-Dec-02 04:34:00.0000,  5.185099187177815E+07,  1.268998092624059E+08,  5.502651047034225E+07, -2.860940456015818E+01,  1.035809625408188E+01,  4.396121982970342E+00,
2450053.690972222, A.D. 1995-Dec-02 04:35:00.0000,  5.184927529912077E+07,  1.269004307377034E+08,  5.502677423302940E+07, -2.860968401730310E+01,  1.035774699162888E+01,  4.395967587534943E+00,
2450053.691666667, A.D. 1995-Dec-02 04:36:00.0000,  5.184755870969633E+07,  1.269010521920444E+08,  5.502703798645259E+07, -2.860996346184372E+01,  1.035739770616022E+01,  4.395813184503165E+00,
2450053.692361111, A.D. 1995-Dec-02 04:37:00.0000,  5.184584210350560E+07,  1.269016736254277E+08,  5.502730173061139E+07, -2.861024289377691E+01,  1.035704839767764E+01,  4.395658773875730E+00,
2450053.693055556, A.D. 1995-Dec-02 04:38:00.0000,  5.184412548054933E+07,  1.269022950378517E+08,  5.502756546550532E+07, -2.861052231309952E+01,  1.035669906618288E+01,  4.395504355653364E+00,
2450053.693750000, A.D. 1995-Dec-02 04:39:00.0000,  5.184240884082828E+07,  1.269029164293151E+08,  5.502782919113392E+07, -2.861080171980843E+01,  1.035634971167768E+01,  4.395349929836784E+00,
2450053.694444444, A.D. 1995-Dec-02 04:40:00.0000,  5.184069218434321E+07,  1.269035377998166E+08,  5.502809290749674E+07, -2.861108111390049E+01,  1.035600033416378E+01,  4.395195496426714E+00,
2450053.695138889, A.D. 1995-Dec-02 04:41:00.0000,  5.183897551109486E+07,  1.269041591493548E+08,  5.502835661459333E+07, -2.861136049537255E+01,  1.035565093364293E+01,  4.395041055423878E+00,
2450053.695833333, A.D. 1995-Dec-02 04:42:00.0000,  5.183725882108401E+07,  1.269047804779282E+08,  5.502862031242324E+07, -2.861163986422147E+01,  1.035530151011686E+01,  4.394886606828995E+00,
2450053.696527778, A.D. 1995-Dec-02 04:43:00.0000,  5.183554211431140E+07,  1.269054017855355E+08,  5.502888400098600E+07, -2.861191922044413E+01,  1.035495206358732E+01,  4.394732150642790E+00,
2450053.697222222, A.D. 1995-Dec-02 04:44:00.0000,  5.183382539077781E+07,  1.269060230721754E+08,  5.502914768028116E+07, -2.861219856403738E+01,  1.035460259405606E+01,  4.394577686865984E+00,
2450053.697916667, A.D. 1995-Dec-02 04:45:00.0000,  5.183210865048398E+07,  1.269066443378464E+08,  5.502941135030828E+07, -2.861247789499809E+01,  1.035425310152481E+01,  4.394423215499302E+00,
2450053.698611111, A.D. 1995-Dec-02 04:46:00.0000,  5.183039189343066E+07,  1.269072655825471E+08,  5.502967501106687E+07, -2.861275721332310E+01,  1.035390358599532E+01,  4.394268736543463E+00,
2450053.699305556, A.D. 1995-Dec-02 04:47:00.0000,  5.182867511961863E+07,  1.269078868062762E+08,  5.502993866255651E+07, -2.861303651900930E+01,  1.035355404746933E+01,  4.394114249999193E+00,
2450053.700000000, A.D. 1995-Dec-02 04:48:00.0000,  5.182695832904864E+07,  1.269085080090323E+08,  5.503020230477672E+07, -2.861331581205354E+01,  1.035320448594859E+01,  4.393959755867212E+00,
2450053.700694445, A.D. 1995-Dec-02 04:49:00.0000,  5.182524152172144E+07,  1.269091291908141E+08,  5.503046593772706E+07, -2.861359509245269E+01,  1.035285490143485E+01,  4.393805254148245E+00,
2450053.701388889, A.D. 1995-Dec-02 04:50:00.0000,  5.182352469763780E+07,  1.269097503516200E+08,  5.503072956140707E+07, -2.861387436020360E+01,  1.035250529392984E+01,  4.393650744843015E+00,
2450053.702083333, A.D. 1995-Dec-02 04:51:00.0000,  5.182180785679847E+07,  1.269103714914489E+08,  5.503099317581629E+07, -2.861415361530316E+01,  1.035215566343532E+01,  4.393496227952244E+00,
2450053.702777778, A.D. 1995-Dec-02 04:52:00.0000,  5.182009099920421E+07,  1.269109926102992E+08,  5.503125678095426E+07, -2.861443285774821E+01,  1.035180600995302E+01,  4.393341703476656E+00,
2450053.703472222, A.D. 1995-Dec-02 04:53:00.0000,  5.181837412485579E+07,  1.269116137081696E+08,  5.503152037682056E+07, -2.861471208753562E+01,  1.035145633348470E+01,  4.393187171416973E+00,
2450053.704166667, A.D. 1995-Dec-02 04:54:00.0000,  5.181665723375396E+07,  1.269122347850588E+08,  5.503178396341468E+07, -2.861499130466226E+01,  1.035110663403210E+01,  4.393032631773921E+00,
2450053.704861111, A.D. 1995-Dec-02 04:55:00.0000,  5.181494032589948E+07,  1.269128558409653E+08,  5.503204754073622E+07, -2.861527050912500E+01,  1.035075691159696E+01,  4.392878084548220E+00,
2450053.705555555, A.D. 1995-Dec-02 04:56:00.0000,  5.181322340129311E+07,  1.269134768758877E+08,  5.503231110878468E+07, -2.861554970092070E+01,  1.035040716618104E+01,  4.392723529740596E+00,
2450053.706250000, A.D. 1995-Dec-02 04:57:00.0000,  5.181150645993562E+07,  1.269140978898247E+08,  5.503257466755963E+07, -2.861582888004623E+01,  1.035005739778608E+01,  4.392568967351773E+00,
2450053.706944444, A.D. 1995-Dec-02 04:58:00.0000,  5.180978950182777E+07,  1.269147188827750E+08,  5.503283821706062E+07, -2.861610804649847E+01,  1.034970760641382E+01,  4.392414397382471E+00,
2450053.707638889, A.D. 1995-Dec-02 04:59:00.0000,  5.180807252697030E+07,  1.269153398547370E+08,  5.503310175728717E+07, -2.861638720027426E+01,  1.034935779206602E+01,  4.392259819833418E+00,
2450053.708333333, A.D. 1995-Dec-02 05:00:00.0000,  5.180635553536398E+07,  1.269159608057096E+08,  5.503336528823885E+07, -2.861666634137048E+01,  1.034900795474443E+01,  4.392105234705335E+00,
2450053.709027778, A.D. 1995-Dec-02 05:01:00.0000,  5.180463852700958E+07,  1.269165817356911E+08,  5.503362880991518E+07, -2.861694546978401E+01,  1.034865809445079E+01,  4.391950641998950E+00,
2450053.709722222, A.D. 1995-Dec-02 05:02:00.0000,  5.180292150190786E+07,  1.269172026446804E+08,  5.503389232231573E+07, -2.861722458551170E+01,  1.034830821118684E+01,  4.391796041714981E+00,
